CCSDS_OMM_VERS = 2.0
CREATION_DATE  = 
ORIGINATOR     = 

OBJECT_NAME    = STARLINK-37052
OBJECT_ID      = 2026-050N
CENTER_NAME    = EARTH
REF_FRAME      = TEME
TIME_SYSTEM    = UTC
MEAN_ELEMENT_THEORY = SGP/SGP4

EPOCH          = 2026-04-01T16:36:12.785760
MEAN_MOTION    = 15.80966451
ECCENTRICITY   = .0001576
INCLINATION    = 53.1586
RA_OF_ASC_NODE = 166.4592
ARG_OF_PERICENTER = 52.8836
MEAN_ANOMALY   = 307.2331

EPHEMERIS_TYPE = 0
CLASSIFICATION_TYPE = U
NORAD_CAT_ID   = 68179
ELEMENT_SET_NO = 999
REV_AT_EPOCH   = 411
BSTAR          = .10923E-2
MEAN_MOTION_DOT = .221452E-2
MEAN_MOTION_DDOT = 0

CCSDS_OMM_VERS = 2.0
CREATION_DATE  = 
ORIGINATOR     = 

OBJECT_NAME    = STARLINK-37035
OBJECT_ID      = 2026-050P
CENTER_NAME    = EARTH
REF_FRAME      = TEME
TIME_SYSTEM    = UTC
MEAN_ELEMENT_THEORY = SGP/SGP4

EPOCH          = 2026-04-01T16:35:08.081664
MEAN_MOTION    = 15.80994732
ECCENTRICITY   = .0001476
INCLINATION    = 53.1583
RA_OF_ASC_NODE = 166.4540
ARG_OF_PERICENTER = 72.8155
MEAN_ANOMALY   = 287.3029

EPHEMERIS_TYPE = 0
CLASSIFICATION_TYPE = U
NORAD_CAT_ID   = 68180
ELEMENT_SET_NO = 999
REV_AT_EPOCH   = 411
BSTAR          = .15373E-2
MEAN_MOTION_DOT = .315839E-2
MEAN_MOTION_DDOT = 0

CCSDS_OMM_VERS = 2.0
CREATION_DATE  = 
ORIGINATOR     = 

OBJECT_NAME    = STARLINK-37032
OBJECT_ID      = 2026-050Q
CENTER_NAME    = EARTH
REF_FRAME      = TEME
TIME_SYSTEM    = UTC
MEAN_ELEMENT_THEORY = SGP/SGP4

EPOCH          = 2026-04-01T16:34:03.122688
MEAN_MOTION    = 15.80962975
ECCENTRICITY   = .0000897
INCLINATION    = 53.1589
RA_OF_ASC_NODE = 166.4492
ARG_OF_PERICENTER = 79.2132
MEAN_ANOMALY   = 280.8991

EPHEMERIS_TYPE = 0
CLASSIFICATION_TYPE = U
NORAD_CAT_ID   = 68181
ELEMENT_SET_NO = 999
REV_AT_EPOCH   = 411
BSTAR          = .10069E-2
MEAN_MOTION_DOT = .203637E-2
MEAN_MOTION_DDOT = 0

CCSDS_OMM_VERS = 2.0
CREATION_DATE  = 
ORIGINATOR     = 

OBJECT_NAME    = STARLINK-37082
OBJECT_ID      = 2026-050R
CENTER_NAME    = EARTH
REF_FRAME      = TEME
TIME_SYSTEM    = UTC
MEAN_ELEMENT_THEORY = SGP/SGP4

EPOCH          = 2026-04-01T16:32:58.492896
MEAN_MOTION    = 15.80982334
ECCENTRICITY   = .0001797
INCLINATION    = 53.1587
RA_OF_ASC_NODE = 166.4435
ARG_OF_PERICENTER = 64.5905
MEAN_ANOMALY   = 295.5304

EPHEMERIS_TYPE = 0
CLASSIFICATION_TYPE = U
NORAD_CAT_ID   = 68182
ELEMENT_SET_NO = 999
REV_AT_EPOCH   = 411
BSTAR          = .13181E-2
MEAN_MOTION_DOT = .269075E-2
MEAN_MOTION_DDOT = 0

CCSDS_OMM_VERS = 2.0
CREATION_DATE  = 
ORIGINATOR     = 

OBJECT_NAME    = STARLINK-37102
OBJECT_ID      = 2026-050S
CENTER_NAME    = EARTH
REF_FRAME      = TEME
TIME_SYSTEM    = UTC
MEAN_ELEMENT_THEORY = SGP/SGP4

EPOCH          = 2026-04-01T16:31:53.366304
MEAN_MOTION    = 15.80994867
ECCENTRICITY   = .0001267
INCLINATION    = 53.1588
RA_OF_ASC_NODE = 166.4388
ARG_OF_PERICENTER = 57.3811
MEAN_ANOMALY   = 302.7334

EPHEMERIS_TYPE = 0
CLASSIFICATION_TYPE = U
NORAD_CAT_ID   = 68183
ELEMENT_SET_NO = 999
REV_AT_EPOCH   = 411
BSTAR          = .13827E-2
MEAN_MOTION_DOT = .282925E-2
MEAN_MOTION_DDOT = 0

CCSDS_OMM_VERS = 2.0
CREATION_DATE  = 
ORIGINATOR     = 

OBJECT_NAME    = STARLINK-36964
OBJECT_ID      = 2026-050T
CENTER_NAME    = EARTH
REF_FRAME      = TEME
TIME_SYSTEM    = UTC
MEAN_ELEMENT_THEORY = SGP/SGP4

EPOCH          = 2026-04-01T16:30:48.796992
MEAN_MOTION    = 15.80945085
ECCENTRICITY   = .000105
INCLINATION    = 53.1590
RA_OF_ASC_NODE = 166.4338
ARG_OF_PERICENTER = 104.8689
MEAN_ANOMALY   = 255.2450

EPHEMERIS_TYPE = 0
CLASSIFICATION_TYPE = U
NORAD_CAT_ID   = 68184
ELEMENT_SET_NO = 999
REV_AT_EPOCH   = 411
BSTAR          = .91082E-3
MEAN_MOTION_DOT = .183548E-2
MEAN_MOTION_DDOT = 0

CCSDS_OMM_VERS = 2.0
CREATION_DATE  = 
ORIGINATOR     = 

OBJECT_NAME    = STARLINK-37061
OBJECT_ID      = 2026-050U
CENTER_NAME    = EARTH
REF_FRAME      = TEME
TIME_SYSTEM    = UTC
MEAN_ELEMENT_THEORY = SGP/SGP4

EPOCH          = 2026-04-01T16:29:43.895040
MEAN_MOTION    = 15.80958445
ECCENTRICITY   = .0001106
INCLINATION    = 53.1589
RA_OF_ASC_NODE = 166.4284
ARG_OF_PERICENTER = 44.3048
MEAN_ANOMALY   = 315.8063

EPHEMERIS_TYPE = 0
CLASSIFICATION_TYPE = U
NORAD_CAT_ID   = 68185
ELEMENT_SET_NO = 999
REV_AT_EPOCH   = 411
BSTAR          = .10652E-2
MEAN_MOTION_DOT = .215716E-2
MEAN_MOTION_DDOT = 0

CCSDS_OMM_VERS = 2.0
CREATION_DATE  = 
ORIGINATOR     = 

OBJECT_NAME    = STARLINK-37079
OBJECT_ID      = 2026-050V
CENTER_NAME    = EARTH
REF_FRAME      = TEME
TIME_SYSTEM    = UTC
MEAN_ELEMENT_THEORY = SGP/SGP4

EPOCH          = 2026-04-01T16:28:39.298080
MEAN_MOTION    = 15.80951845
ECCENTRICITY   = .0001708
INCLINATION    = 53.1589
RA_OF_ASC_NODE = 166.4239
ARG_OF_PERICENTER = 50.9046
MEAN_ANOMALY   = 309.2129

EPHEMERIS_TYPE = 0
CLASSIFICATION_TYPE = U
NORAD_CAT_ID   = 68186
ELEMENT_SET_NO = 999
REV_AT_EPOCH   = 411
BSTAR          = .99356E-3
MEAN_MOTION_DOT = .200753E-2
MEAN_MOTION_DDOT = 0

CCSDS_OMM_VERS = 2.0
CREATION_DATE  = 
ORIGINATOR     = 

OBJECT_NAME    = STARLINK-37006
OBJECT_ID      = 2026-050W
CENTER_NAME    = EARTH
REF_FRAME      = TEME
TIME_SYSTEM    = UTC
MEAN_ELEMENT_THEORY = SGP/SGP4

EPOCH          = 2026-04-01T16:27:34.416000
MEAN_MOTION    = 15.80953041
ECCENTRICITY   = .0001369
INCLINATION    = 53.1591
RA_OF_ASC_NODE = 166.4184
ARG_OF_PERICENTER = 69.2811
MEAN_ANOMALY   = 290.8358

EPHEMERIS_TYPE = 0
CLASSIFICATION_TYPE = U
NORAD_CAT_ID   = 68187
ELEMENT_SET_NO = 999
REV_AT_EPOCH   = 411
BSTAR          = .10284E-2
MEAN_MOTION_DOT = .208003E-2
MEAN_MOTION_DDOT = 0

CCSDS_OMM_VERS = 2.0
CREATION_DATE  = 
ORIGINATOR     = 

OBJECT_NAME    = STARLINK-36340
OBJECT_ID      = 2026-050X
CENTER_NAME    = EARTH
REF_FRAME      = TEME
TIME_SYSTEM    = UTC
MEAN_ELEMENT_THEORY = SGP/SGP4

EPOCH          = 2026-04-01T16:26:29.417280
MEAN_MOTION    = 15.80985729
ECCENTRICITY   = .0001107
INCLINATION    = 53.1588
RA_OF_ASC_NODE = 166.4137
ARG_OF_PERICENTER = 51.7394
MEAN_ANOMALY   = 308.3729

EPHEMERIS_TYPE = 0
CLASSIFICATION_TYPE = U
NORAD_CAT_ID   = 68188
ELEMENT_SET_NO = 999
REV_AT_EPOCH   = 401
BSTAR          = .13802E-2
MEAN_MOTION_DOT = .28226E-2
MEAN_MOTION_DDOT = 0

CCSDS_OMM_VERS = 2.0
CREATION_DATE  = 
ORIGINATOR     = 

OBJECT_NAME    = STARLINK-36305
OBJECT_ID      = 2026-050Y
CENTER_NAME    = EARTH
REF_FRAME      = TEME
TIME_SYSTEM    = UTC
MEAN_ELEMENT_THEORY = SGP/SGP4

EPOCH          = 2026-04-01T16:25:24.296736
MEAN_MOTION    = 15.81007983
ECCENTRICITY   = .0000968
INCLINATION    = 53.1587
RA_OF_ASC_NODE = 166.4088
ARG_OF_PERICENTER = 74.2909
MEAN_ANOMALY   = 285.8220

EPHEMERIS_TYPE = 0
CLASSIFICATION_TYPE = U
NORAD_CAT_ID   = 68189
ELEMENT_SET_NO = 999
REV_AT_EPOCH   = 401
BSTAR          = .14926E-2
MEAN_MOTION_DOT = .30649E-2
MEAN_MOTION_DDOT = 0

CCSDS_OMM_VERS = 2.0
CREATION_DATE  = 
ORIGINATOR     = 

OBJECT_NAME    = STARLINK-37071
OBJECT_ID      = 2026-050Z
CENTER_NAME    = EARTH
REF_FRAME      = TEME
TIME_SYSTEM    = UTC
MEAN_ELEMENT_THEORY = SGP/SGP4

EPOCH          = 2026-04-01T16:23:15.010368
MEAN_MOTION    = 15.80982488
ECCENTRICITY   = .0001368
INCLINATION    = 53.1587
RA_OF_ASC_NODE = 166.3986
ARG_OF_PERICENTER = 128.7159
MEAN_ANOMALY   = 231.3986

EPHEMERIS_TYPE = 0
CLASSIFICATION_TYPE = U
NORAD_CAT_ID   = 68190
ELEMENT_SET_NO = 999
REV_AT_EPOCH   = 411
BSTAR          = .13315E-2
MEAN_MOTION_DOT = .271897E-2
MEAN_MOTION_DDOT = 0

