STARLINK-37052          
1 68179U 26050N   26091.69181465  .00221452  00000+0  10923-2 0  9994
2 68179  53.1586 166.4592 0001576  52.8836 307.2331 15.80966451  4115
STARLINK-37035          
1 68180U 26050P   26091.69106576  .00315839  00000+0  15373-2 0  9993
2 68180  53.1583 166.4540 0001476  72.8155 287.3029 15.80994732  4117
STARLINK-37032          
1 68181U 26050Q   26091.69031392  .00203637  00000+0  10069-2 0  9996
2 68181  53.1589 166.4492 0000897  79.2132 280.8991 15.80962975  4112
STARLINK-37082          
1 68182U 26050R   26091.68956589  .00269075  00000+0  13181-2 0  9996
2 68182  53.1587 166.4435 0001797  64.5905 295.5304 15.80982334  4115
STARLINK-37102          
1 68183U 26050S   26091.68881211  .00282925  00000+0  13827-2 0  9992
2 68183  53.1588 166.4388 0001267  57.3811 302.7334 15.80994867  4110
STARLINK-36964          
1 68184U 26050T   26091.68806478  .00183548  00000+0  91082-3 0  9996
2 68184  53.1590 166.4338 0001050 104.8689 255.2450 15.80945085  4119
STARLINK-37061          
1 68185U 26050U   26091.68731360  .00215716  00000+0  10652-2 0  9990
2 68185  53.1589 166.4284 0001106  44.3048 315.8063 15.80958445  4114
STARLINK-37079          
1 68186U 26050V   26091.68656595  .00200753  00000+0  99356-3 0  9991
2 68186  53.1589 166.4239 0001708  50.9046 309.2129 15.80951845  4111
STARLINK-37006          
1 68187U 26050W   26091.68581500  .00208003  00000+0  10284-2 0  9993
2 68187  53.1591 166.4184 0001369  69.2811 290.8358 15.80953041  4119
STARLINK-36340          
1 68188U 26050X   26091.68506270  .00282260  00000+0  13802-2 0  9991
2 68188  53.1588 166.4137 0001107  51.7394 308.3729 15.80985729  4010
STARLINK-36305          
1 68189U 26050Y   26091.68430899  .00306490  00000+0  14926-2 0  9995
2 68189  53.1587 166.4088 0000968  74.2909 285.8220 15.81007983  4014
STARLINK-37071          
1 68190U 26050Z   26091.68281262  .00271897  00000+0  13315-2 0  9998
2 68190  53.1587 166.3986 0001368 128.7159 231.3986 15.80982488  4116
